{"fetched_at":"2026-03-29T16:36:15Z","count":15609,"tles":[{"name":"STARLINK-3370","line1":"1 51127U 22005Z   26087.83142485  .00000133  00000+0  26430-4 0  9998","line2":"2 51127  53.2172 213.2000 0001192  88.4797 271.6332 15.08837768231623","category":"Starlink"}]}