{
  "norad_id": 51127,
  "name": "STARLINK-3370",
  "history": [
    {
      "epoch": "2026-03-28T19:57:15.107040Z",
      "apogee_km": 540.5751001746639,
      "perigee_km": 538.9253224325121,
      "latitude_deg": 2.311637363491511e-05,
      "longitude_deg": 87.64084556130734,
      "height_km": 540.62423820354,
      "semi_major_axis_km": 6917.887211303588,
      "eccentricity": 0.00011924,
      "inclination_deg": 53.2172,
      "raan_deg": 213.2,
      "arg_perigee_deg": 88.4797,
      "mean_anomaly_deg": 271.6332,
      "mean_motion_rev_day": 15.08837768
    }
  ]
}